{
  "type": "FeatureCollection",
  "features": [
    {
      "type": "Feature",
      "properties": {
        "norad_id": 40010,
        "name": "KAZEOSAT 2",
        "group": "resource",
        "lat": -75.14581652830597,
        "lon": -128.9073231606026,
        "alt_km": 622.6754447073936,
        "timestamp": "2025-12-23T07:45:09.053670+00:00",
        "meta_object_name": "KAZEOSAT 2",
        "meta_object_id": "2014-033A",
        "meta_epoch": "2025-12-22T22:23:53.814336",
        "meta_mean_motion": 14.85185305,
        "meta_eccentricity": 0.000855,
        "meta_inclination": 97.5494,
        "meta_ra_of_asc_node": 200.7213,
        "meta_arg_of_pericenter": 171.0648,
        "meta_mean_anomaly": 189.0721,
        "meta_ephemeris_type": 0,
        "meta_classification_type": "U",
        "meta_norad_cat_id": 40010,
        "meta_element_set_no": 999,
        "meta_rev_at_epoch": 62279,
        "meta_bstar": 0.00016435957,
        "meta_mean_motion_dot": 1.359e-05,
        "meta_mean_motion_ddot": 0,
        "tle_line1": "1 40010U 14033A   25356.93326174  .00001359  00000+0  16436-3 0  9992",
        "tle_line2": "2 40010  97.5494 200.7213 0008550 171.0648 189.0721 14.85185305622799"
      },
      "geometry": {
        "type": "Point",
        "coordinates": [
          -128.9073231606026,
          -75.14581652830597
        ]
      }
    },
    {
      "type": "Feature",
      "properties": {
        "norad_id": 40011,
        "name": "HODOYOSHI-4",
        "group": "resource",
        "lat": 78.49596857595392,
        "lon": 46.29080063505175,
        "alt_km": 591.5956352416642,
        "timestamp": "2025-12-23T07:45:09.053680+00:00",
        "meta_object_name": "HODOYOSHI-4",
        "meta_object_id": "2014-033B",
        "meta_epoch": "2025-12-22T23:14:15.120384",
        "meta_mean_motion": 14.8751905,
        "meta_eccentricity": 0.00239495,
        "meta_inclination": 97.5407,
        "meta_ra_of_asc_node": 185.3478,
        "meta_arg_of_pericenter": 166.0931,
        "meta_mean_anomaly": 194.0951,
        "meta_ephemeris_type": 0,
        "meta_classification_type": "U",
        "meta_norad_cat_id": 40011,
        "meta_element_set_no": 999,
        "meta_rev_at_epoch": 62260,
        "meta_bstar": 0.00025463946,
        "meta_mean_motion_dot": 2.269e-05,
        "meta_mean_motion_ddot": 0,
        "tle_line1": "1 40011U 14033B   25356.96823056  .00002269  00000+0  25464-3 0  9999",
        "tle_line2": "2 40011  97.5407 185.3478 0023949 166.0931 194.0951 14.87519050622604"
      },
      "geometry": {
        "type": "Point",
        "coordinates": [
          46.29080063505175,
          78.49596857595392
        ]
      }
    },
    {
      "type": "Feature",
      "properties": {
        "norad_id": 40013,
        "name": "DEIMOS-2",
        "group": "resource",
        "lat": 72.94504865650633,
        "lon": 78.59812493926914,
        "alt_km": 580.5059036977582,
        "timestamp": "2025-12-23T07:45:09.053690+00:00",
        "meta_object_name": "DEIMOS-2",
        "meta_object_id": "2014-033D",
        "meta_epoch": "2025-12-22T21:37:54.698592",
        "meta_mean_motion": 14.93015573,
        "meta_eccentricity": 0.00014961,
        "meta_inclination": 97.6065,
        "meta_ra_of_asc_node": 232.3666,
        "meta_arg_of_pericenter": 101.9004,
        "meta_mean_anomaly": 258.2384,
        "meta_ephemeris_type": 0,
        "meta_classification_type": "U",
        "meta_norad_cat_id": 40013,
        "meta_element_set_no": 999,
        "meta_rev_at_epoch": 61141,
        "meta_bstar": 0.00018428634,
        "meta_mean_motion_dot": 1.862e-05,
        "meta_mean_motion_ddot": 0,
        "tle_line1": "1 40013U 14033D   25356.90132753  .00001862  00000+0  18429-3 0  9993",
        "tle_line2": "2 40013  97.6065 232.3666 0001496 101.9004 258.2384 14.93015573611419"
      },
      "geometry": {
        "type": "Point",
        "coordinates": [
          78.59812493926914,
          72.94504865650633
        ]
      }
    },
    {
      "type": "Feature",
      "properties": {
        "norad_id": 40015,
        "name": "HODOYOSHI-3",
        "group": "resource",
        "lat": -75.04648479156754,
        "lon": -167.21682906407534,
        "alt_km": 613.9563962026778,
        "timestamp": "2025-12-23T07:45:09.053700+00:00",
        "meta_object_name": "HODOYOSHI-3",
        "meta_object_id": "2014-033F",
        "meta_epoch": "2025-12-22T22:23:45.491424",
        "meta_mean_motion": 14.84839915,
        "meta_eccentricity": 0.00323817,
        "meta_inclination": 97.6205,
        "meta_ra_of_asc_node": 162.3253,
        "meta_arg_of_pericenter": 213.2744,
        "meta_mean_anomaly": 146.6436,
        "meta_ephemeris_type": 0,
        "meta_classification_type": "U",
        "meta_norad_cat_id": 40015,
        "meta_element_set_no": 999,
        "meta_rev_at_epoch": 62146,
        "meta_bstar": 0.00018685187,
        "meta_mean_motion_dot": 1.549e-05,
        "meta_mean_motion_ddot": 0,
        "tle_line1": "1 40015U 14033F   25356.93316541  .00001549  00000+0  18685-3 0  9993",
        "tle_line2": "2 40015  97.6205 162.3253 0032381 213.2744 146.6436 14.84839915621464"
      },
      "geometry": {
        "type": "Point",
        "coordinates": [
          -167.21682906407534,
          -75.04648479156754
        ]
      }
    },
    {
      "type": "Feature",
      "properties": {
        "norad_id": 40053,
        "name": "SPOT 7",
        "group": "resource",
        "lat": 10.32836948258702,
        "lon": -119.36044685366909,
        "alt_km": 692.2612518504438,
        "timestamp": "2025-12-23T07:45:09.053710+00:00",
        "meta_object_name": "SPOT 7",
        "meta_object_id": "2014-034A",
        "meta_epoch": "2025-12-22T22:45:34.321824",
        "meta_mean_motion": 14.60745193,
        "meta_eccentricity": 0.00015581,
        "meta_inclination": 98.0894,
        "meta_ra_of_asc_node": 58.7883,
        "meta_arg_of_pericenter": 83.4642,
        "meta_mean_anomaly": 276.6736,
        "meta_ephemeris_type": 0,
        "meta_classification_type": "U",
        "meta_norad_cat_id": 40053,
        "meta_element_set_no": 999,
        "meta_rev_at_epoch": 61140,
        "meta_bstar": 9.0609676e-05,
        "meta_mean_motion_dot": 3.96e-06,
        "meta_mean_motion_ddot": 0,
        "tle_line1": "1 40053U 14034A   25356.94831391  .00000396  00000+0  90610-4 0  9990",
        "tle_line2": "2 40053  98.0894  58.7883 0001558  83.4642 276.6736 14.60745193611406"
      },
      "geometry": {
        "type": "Point",
        "coordinates": [
          -119.36044685366909,
          10.32836948258702
        ]
      }
    },
    {
      "type": "Feature",
      "properties": {
        "norad_id": 40072,
        "name": "SKYSAT-B",
        "group": "resource",
        "lat": 36.2976299487487,
        "lon": -64.61402989377561,
        "alt_km": 603.1197112302671,
        "timestamp": "2025-12-23T07:45:09.053719+00:00",
        "meta_object_name": "SKYSAT-B",
        "meta_object_id": "2014-037D",
        "meta_epoch": "2025-12-22T20:17:08.751552",
        "meta_mean_motion": 14.87361186,
        "meta_eccentricity": 0.00067533,
        "meta_inclination": 98.3626,
        "meta_ra_of_asc_node": 301.0856,
        "meta_arg_of_pericenter": 121.7869,
        "meta_mean_anomaly": 238.4005,
        "meta_ephemeris_type": 0,
        "meta_classification_type": "U",
        "meta_norad_cat_id": 40072,
        "meta_element_set_no": 999,
        "meta_rev_at_epoch": 61974,
        "meta_bstar": 0.0001702773,
        "meta_mean_motion_dot": 1.478e-05,
        "meta_mean_motion_ddot": 0,
        "tle_line1": "1 40072U 14037D   25356.84524018  .00001478  00000+0  17028-3 0  9991",
        "tle_line2": "2 40072  98.3626 301.0856 0006753 121.7869 238.4005 14.87361186619741"
      },
      "geometry": {
        "type": "Point",
        "coordinates": [
          -64.61402989377561,
          36.2976299487487
        ]
      }
    },
    {
      "type": "Feature",
      "properties": {
        "norad_id": 40115,
        "name": "WORLDVIEW-3 (WV-3)",
        "group": "resource",
        "lat": -20.98981266823693,
        "lon": -113.57102689025027,
        "alt_km": 619.4613987324346,
        "timestamp": "2025-12-23T07:45:09.053729+00:00",
        "meta_object_name": "WORLDVIEW-3 (WV-3)",
        "meta_object_id": "2014-048A",
        "meta_epoch": "2025-12-22T22:45:43.920000",
        "meta_mean_motion": 14.84670283,
        "meta_eccentricity": 0.00019276,
        "meta_inclination": 97.8766,
        "meta_ra_of_asc_node": 69.1035,
        "meta_arg_of_pericenter": 132.368,
        "meta_mean_anomaly": 227.7699,
        "meta_ephemeris_type": 0,
        "meta_classification_type": "U",
        "meta_norad_cat_id": 40115,
        "meta_element_set_no": 999,
        "meta_rev_at_epoch": 61575,
        "meta_bstar": 0.00012535975,
        "meta_mean_motion_dot": 1.007e-05,
        "meta_mean_motion_ddot": 0,
        "tle_line1": "1 40115U 14048A   25356.94842500  .00001007  00000+0  12536-3 0  9998",
        "tle_line2": "2 40115  97.8766  69.1035 0001927 132.3680 227.7699 14.84670283615751"
      },
      "geometry": {
        "type": "Point",
        "coordinates": [
          -113.57102689025027,
          -20.98981266823693
        ]
      }
    }
  ]
}